[{"OBJECT_NAME":"STARLINK-34811","OBJECT_ID":"2025-191T","EPOCH":"2026-03-09T14:37:27.977376","MEAN_MOTION":15.05646212,"ECCENTRICITY":0.0002315,"INCLINATION":97.6016,"RA_OF_ASC_NODE":301.3914,"ARG_OF_PERICENTER":84.334,"MEAN_ANOMALY":275.815,"EPHEMERIS_TYPE":0,"CLASSIFICATION_TYPE":"U","NORAD_CAT_ID":65396,"ELEMENT_SET_NO":999,"REV_AT_EPOCH":3025,"BSTAR":0.00016369,"MEAN_MOTION_DOT":2.302e-5,"MEAN_MOTION_DDOT":0},{"OBJECT_NAME":"CZ-4B DEB","OBJECT_ID":"2008-053J","EPOCH":"2026-03-09T11:59:22.469568","MEAN_MOTION":15.1637526,"ECCENTRICITY":0.00601661,"INCLINATION":97.7872,"RA_OF_ASC_NODE":170.5072,"ARG_OF_PERICENTER":304.792,"MEAN_ANOMALY":54.7659,"EPHEMERIS_TYPE":0,"CLASSIFICATION_TYPE":"U","NORAD_CAT_ID":35573,"ELEMENT_SET_NO":999,"REV_AT_EPOCH":91868,"BSTAR":0.0017688276,"MEAN_MOTION_DOT":0.00036031,"MEAN_MOTION_DDOT":0}]
